#cP2017  6  9  0  0  0.00000000      96 ORBIT IGS14 HLM  IGS
## 1952 432000.00000000   900.00000000 57913 0.0000000000000
+   32   G01G02G03G04G05G06G07G08G09G10G11G12G13G14G15G16G17
+        G18G19G20G21G22G23G24G25G26G27G28G29G30G31G32  0  0
+          0  0  0  0  0  0  0  0  0  0  0  0  0  0  0  0  0
+          0  0  0  0  0  0  0  0  0  0  0  0  0  0  0  0  0
+          0  0  0  0  0  0  0  0  0  0  0  0  0  0  0  0  0
++         2  2  2  0  2  2  2  2  2  2  2  2  2  2  2  2  2
++         2  3  2  2  2  2  2  3  2  2  2  2  2  2  2  0  0
++         0  0  0  0  0  0  0  0  0  0  0  0  0  0  0  0  0
++         0  0  0  0  0  0  0  0  0  0  0  0  0  0  0  0  0
++         0  0  0  0  0  0  0  0  0  0  0  0  0  0  0  0  0
%c G  cc GPS ccc cccc cccc cccc cccc ccccc ccccc ccccc ccccc
%c cc cc ccc ccc cccc cccc cccc cccc ccccc ccccc ccccc ccccc
%f  1.2500000  1.025000000  0.00000000000  0.000000000000000
%f  0.0000000  0.000000000  0.00000000000  0.000000000000000
%i    0    0    0    0      0      0      0      0         0
%i    0    0    0    0      0      0      0      0         0
/* RAPID ORBIT COMBINATION FROM WEIGHTED AVERAGE OF:        
/* cod emr esa gfz jpl ngs sio usn whu                      
/* REFERENCED TO IGS TIME (IGST) AND TO WEIGHTED MEAN POLE: 
/* PCV:IGS14_1930 OL/AL:FES2004  NONE     Y  ORB:CMB CLK:CMB
*  2017  6  9 15  0  0.00000000
PG01   1627.788665 -16255.809007 -20999.695775     55.695466  5  5  3  94       
PG02 -19832.474862  15697.521367   8056.220154    402.082651  6  7  6  99       
PG03  -9054.929546 -20120.660733 -14813.191579    -95.822981  6  5  8  98       
PG04  23835.915779  -9689.000053   5478.239298 999999.999999
PG05 -11373.293737  10748.757100  21391.274226    -42.220945  4  6  6  48       
PG06 -25118.622556   5347.400012  -6789.968648    362.112159  3  3  2  69       
PG07 -13724.886241 -10108.834841  20653.840751    341.770143  3  6  6  97       
PG08   6022.292341 -25494.173005   4102.202971    -62.570006  8  5  9 107       
PG09  -9226.243079 -18907.953782  16181.997491    381.117337  5  4  5  83       
PG10  22994.095642   8519.202836 -10319.202448    -30.206132  6  5  7 114       
PG11   4573.333460 -21689.873511 -15245.186690   -694.115013  6  6  4 112       
PG12   3326.618409  19017.393907 -18498.070055    381.765785  7  6  6  84       
PG13 -12196.602886  21599.992542   9443.776768    -84.787572  8  9  6  85       
PG14  15696.511336  -6958.928245 -19942.969999    -73.763371  7  4  6 121       
PG15  -1389.498022  26321.360553   -313.958116   -351.428388  9  9  5  83       
PG16  12458.970174  -8145.427001  21902.258128     34.606789  8  9  8  96       
PG17 -14226.074964  -3457.238147 -21806.775748   -175.584198  8  5  2  93       
PG18  21985.905640  15061.244594   -386.972185    619.315377  5  5  4  87       
PG19 -15812.951668   5900.917852 -20851.952227   -500.412968  9  7  5  78       
PG20   4894.872929  18907.279240  17859.657974    475.474576  5  3  6  71       
PG21  18510.872152   6561.492381  18717.231884   -501.954357  5  6  3 107       
PG22    250.923192 -17795.634621 -19454.496281    -17.090679  6  1  5  92       
PG23  -2340.186464 -25189.219876   7556.964142   -213.274818  8  9  8  91       
PG24  -4164.809239  17411.764578 -19631.029398    -35.976004  4  6  4  46       
PG25  15951.253824  19666.734497  -8520.214253   -401.855127  3  4  2 100       
PG26  19740.230732   -791.199781  17787.933996   -493.464080  6  5  2 101       
PG27  12238.736357 -18503.228617  14382.769633    272.690839  8  6  8  59       
PG28 -21612.574460 -13347.673737  -7119.406876    619.588797  7  6  6  80       
PG29   5746.863264  21470.370971  14553.498761    596.660537  5  3  4  98       
PG30 -23132.121697  -1948.506469  13027.876572    154.472070  6  2  6  91       
PG31  25621.510563  -6270.068942  -4515.062160    195.774736  5  3  6  87       
PG32  15230.459295   1192.185392 -21704.152531   -435.941599  5  2  8  97       
*  2017  6  9 15 15  0.00000000
PG01   3792.010599 -17114.269792 -19984.771996     55.695799  5  5  4 127       
PG02 -20605.913452  15757.904335   5350.928425    402.075407  6  7  6 109       
PG03  -7487.468334 -19206.789797 -16769.276681    -95.820888  6  4  7 117       
PG04  24309.571410  -9593.867857   2585.775679 999999.999999
PG05 -13353.673898   9320.147990  20932.017153    -42.219532  4  7  6  88       
PG06 -24360.978983   4764.086206  -9452.308004    362.116628  4  4  1 130       
PG07 -11570.015260 -11077.647314  21429.417112    341.766416  1  7  6 109       
PG08   6201.488247 -24851.087044   6883.533541    -62.571582  8  5  9  99       
PG09  -8871.289451 -20624.499040  14158.936658    381.124604  5  4  5  91       
PG10  23701.663509   9306.526727  -7730.086060    -30.195978  5  6  7 116       
PG11   5850.449858 -22631.567131 -13237.149359   -694.117608  6  6  4 109       
PG12   1607.009984  17714.887808 -19957.851600    381.764931  7  7  6 114       
PG13 -12125.748583  20349.346565  11946.303365    -84.788729  7  8  6 107       
PG14  15364.796987  -4585.274972 -20869.335465    -73.764583  6  5  6 113       
PG15  -1759.582014  26166.202616   2494.810796   -351.428978  8  9  6 108       
PG16  14346.139295  -6523.358979  21321.143563     34.607299  8  9  8 113       
PG17 -13833.053507  -5978.005102 -21530.579526   -175.582233  8  5  3 126       
PG18  21756.379822  15316.666275   2381.872368    619.316682  6  5  4 100       
PG19 -15394.039259   3572.680714 -21665.322513   -500.412070  9  8  5 126       
PG20   2943.855696  17969.566480  19194.533631    475.475904  4  3  6  86       
PG21  16710.645323   7595.459076  20020.439365   -501.951794  4  6  3 111       
PG22   2276.800719 -16617.099738 -20338.983252    -17.101555  6  2  4 116       
PG23  -1958.863806 -25847.915295   4830.026360   -213.275070  9  9  8 104       
PG24  -6175.335958  18229.140059 -18286.822425    -35.976136  3  5  5  98       
PG25  14965.567057  19161.888773 -11094.886024   -401.860988  4  3  1 106       
PG26  21230.228868    448.902225  16002.411148   -493.459071  6  6  1 106       
PG27  12232.788140 -16717.668702  16439.515667    272.696962  7  6  8  79       
PG28 -22047.905777 -13956.249083  -4309.281248    619.591502  6  6  6 103       
PG29   5352.477476  22957.722226  12256.338693    596.657304  4  2  4 120       
PG30 -21701.344455  -2719.179315  15162.853058    154.470880  5  2  6 104       
PG31  25075.016718  -5828.362389  -7255.779249    195.772542  4  3  6  91       
PG32  14989.688021   3663.608449 -21599.708032   -435.950141  4  2  7 113       
*  2017  6  9 15 30  0.00000000
PG01   5791.026738 -18025.888337 -18626.862500     55.696192  4  4  4 119       
PG02 -21110.003163  15696.259323   2552.822441    402.068380  6  8  6  97       
PG03  -5701.486142 -18265.530352 -18437.228460    -95.818715  6  4  7 104       
PG04  24472.741599  -9410.874940   -352.680252 999999.999999
PG05 -15339.049792   8030.978971  20110.964415    -42.217946  3  8  6  64       
PG06 -23376.652004   4004.700704 -11951.983832    362.121043  5  5  2  89       
PG07  -9406.774844 -12191.177068  21844.207509    341.762211     7  7 109       
PG08   6404.167401 -23909.919326   9545.886679    -62.572558  8  6  9  88       
PG09  -8612.066676 -22114.088390  11891.741465    381.131850  5  4  5  87       
PG10  24195.538768   9895.466352  -5008.675569    -30.185833  5  6  7 103       
PG11   6939.631893 -23449.200349 -11008.932813   -694.119898  6  6  3 114       
PG12   -303.027958  16427.855843 -21080.850811    381.763894  7  8  6  71       
PG13 -12079.671714  18826.731136  14242.520242    -84.789224  7  8  5  74       
PG14  15145.547787  -2113.941324 -21426.624823    -73.765624  5  5  6 121       
PG15  -2146.252261  25711.251731   5259.560273   -351.429403  8  9  6  69       
PG16  16249.018283  -5065.448665  20371.211272     34.608052  7  9  8  91       
PG17 -13582.385937  -8460.509073 -20871.988565   -175.580147  8  5  4  87       
PG18  21275.829432  15425.237789   5110.472922    619.318053  6  5  4  97       
PG19 -15095.726115   1152.886856 -22116.462591   -500.410567  8  8  5  75       
PG20    832.982026  17062.921587  20195.265655    475.477055  2  3  5  88       
PG21  14858.850646   8779.766129  21001.477299   -501.949722  3  6  2  98       
PG22   4423.791522 -15491.556982 -20865.588614    -17.112590  6  3  2 102       
PG23  -1618.581392 -26210.022496   2018.163051   -213.275554  9 10  9  88       
PG24  -7997.398821  19062.357941 -16627.544220    -35.975983  3  6  5  35       
PG25  13718.516267  18562.104063 -13482.122775   -401.866874  5  3  1 111       
PG26  22597.259144   1495.453197  13942.407466   -493.454111  7  7  2  87       
PG27  12314.791703 -14717.234928  18209.686896    272.703189  7  5  8  74       
PG28 -22258.392746 -14338.866780  -1423.970423    619.594480  6  6  6  51       
PG29   5067.937687  24193.275090   9748.457341    596.653725  4  2  4  99       
PG30 -20104.317300  -3653.966657  17038.428965    154.469797  3  2  6  86       
PG31  24281.907508  -5225.343712  -9874.183452    195.770478  3  4  6 111       
PG32  14878.000064   6110.741042 -21122.986995   -435.958734  4  2  7  98       
EOF
